ORBCOMM FM109           
1 40086U 14040A   23353.32916451  .00001162  00000+0  29822-3 0  9999
2 40086  47.0045  70.1413 0002461 302.7993  57.2654 14.56175985501457
ORBCOMM FM107           
1 40087U 14040B   23354.32382262  .00001233  00000+0  31406-3 0  9998
2 40087  47.0065  66.4007 0002373 277.6853  82.3762 14.56172748501671
ORBCOMM FM37 [-]        
1 33064U 08031E   23354.38058752  .00002205  00000+0  34959-3 0  9994
2 33064  48.4428  44.7929 0006204 211.4481 241.1869 14.75584881833484
ORBCOMM FM40 [-]        
1 33065U 08031F   23354.36034446  .00003072  00000+0  46305-3 0  9998
2 33065  48.4442  35.5385 0007554 219.4588 234.1548 14.76724736833505
VESSELSAT 1 [-]         
1 37840U 11058C   23354.86388404  .00000406  00000+0  77122-4 0  9997
2 37840  19.9603 146.8788 0013755 320.6696  39.2709 14.11094655629550
ORBCOMM FM106 [-]       
1 40088U 14040C   23353.95350088  .00001525  00000+0  30583-3 0  9997
2 40088  47.0621 291.7066 0017759  56.8445 303.4145 14.66360387503376
ORBCOMM FM111 [-]       
1 40089U 14040D   23354.70668059  .00002687  00000+0  37010-3 0  9994
2 40089  47.0026 205.5991 0032766 116.8076 243.6175 14.80606032509390
ORBCOMM FM104 [-]       
1 40090U 14040E   23354.42735746  .00001127  00000+0  29914-3 0  9995
2 40090  47.0057  93.2739 0018016 239.6323 120.2780 14.54710165501252
